NORAD_CAT_ID,OBJECT_NAME,OBJECT_TYPE,EPOCH,MEAN_MOTION,ECCENTRICITY,INCLINATION,RA_OF_ASC_NODE,ARG_OF_PERICENTER,MEAN_ANOMALY,BSTAR,MEAN_MOTION_DOT,MEAN_MOTION_DDOT,TLE_LINE0,TLE_LINE1,TLE_LINE2,SEMIMAJOR_AXIS,PERIOD,APOGEE,PERIGEE,DECAYED
52693.0,STARLINK-3946,PAYLOAD,2023-09-04 13:02:09,15.08824819,0.0001491,53.2173,301.3548,78.3033,281.8127,-5.6838e-05,-1.192e-05,0.0,0 STARLINK-3946,1 52693U 22053AP  23247.54316653 -.00001192  00000-0 -56838-4 0  9997,2 52693  53.2173 301.3548 0001491  78.3033 281.8127 15.08824819 72690,6917.927,95.439,540.823,538.76,0.0
52693.0,STARLINK-3946,PAYLOAD,2023-09-04 20:59:04,15.08833038,0.0001362,53.2171,299.8678,77.5021,282.6124,-6.2064e-06,-3.87e-06,0.0,0 STARLINK-3946,1 52693U 22053AP  23247.87436158 -.00000387  00000-0 -62064-5 0  9990,2 52693  53.2171 299.8678 0001362  77.5021 282.6124 15.08833038 72349,6917.902,95.438,540.709,538.824,0.0
52693.0,STARLINK-3946,PAYLOAD,2023-09-05 20:49:51,15.08847308,0.0001305,53.2168,295.407,88.5209,271.5933,2.0092e-05,3.2e-07,0.0,0 STARLINK-3946,1 52693U 22053AP  23248.86795257  .00000032  00000-0  20092-4 0  9997,2 52693  53.2168 295.4070 0001305  88.5209 271.5933 15.08847308 72496,6917.858,95.437,540.626,538.82,0.0
52693.0,STARLINK-3946,PAYLOAD,2023-09-06 12:43:42,15.0884671,0.0001399,53.2169,292.432,73.7171,286.3975,0.00024355,3.591e-05,0.0,0 STARLINK-3946,1 52693U 22053AP  23249.53034988  .00003591  00000-0  24355-3 0  9997,2 52693  53.2169 292.4320 0001399  73.7171 286.3975 15.08846710 72990,6917.86,95.437,540.693,538.757,0.0
52693.0,STARLINK-3946,PAYLOAD,2023-09-06 14:19:05,15.08848933,0.000141,53.217,292.1349,72.9509,287.1637,0.00026562,3.943e-05,0.0,0 STARLINK-3946,1 52693U 22053AP  23249.59658863  .00003943  00000-0  26562-3 0  9990,2 52693  53.2170 292.1349 0001410  72.9509 287.1637 15.08848933 73006,6917.853,95.437,540.694,538.743,0.0
52693.0,STARLINK-3946,PAYLOAD,2023-09-07 07:48:21,15.08835553,0.0001651,53.2171,288.864,73.6189,286.4985,3.2603e-05,2.31e-06,0.0,0 STARLINK-3946,1 52693U 22053AP  23250.32524369  .00000231  00000-0  32603-4 0  9997,2 52693  53.2171 288.8640 0001651  73.6189 286.4985 15.08835553 72711,6917.894,95.438,540.901,538.617,0.0
52693.0,STARLINK-3946,PAYLOAD,2023-09-07 12:34:30,15.08843825,0.0001681,53.217,287.9721,69.3969,290.7203,5.1964e-05,5.39e-06,0.0,0 STARLINK-3946,1 52693U 22053AP  23250.52395846  .00000539  00000-0  51964-4 0  9997,2 52693  53.2170 287.9721 0001681  69.3969 290.7203 15.08843825 73141,6917.869,95.437,540.897,538.571,0.0
52693.0,STARLINK-3946,PAYLOAD,2023-09-08 09:14:30,15.08848201,0.0001764,53.2175,284.1041,75.3105,284.8083,-4.109e-05,-9.42e-06,0.0,0 STARLINK-3946,1 52693U 22053AP  23251.38507677 -.00000942  00000-0 -41090-4 0  9998,2 52693  53.2175 284.1041 0001764  75.3105 284.8083 15.08848201 73278,6917.855,95.437,540.941,538.5,0.0
52693.0,STARLINK-3946,PAYLOAD,2023-09-08 14:00:39,15.08851754,0.0001504,53.2176,283.2113,90.0833,270.0331,-1.635e-05,-5.48e-06,0.0,0 STARLINK-3946,1 52693U 22053AP  23251.58379146 -.00000548  00000-0 -16350-4 0  9991,2 52693  53.2176 283.2113 0001504  90.0833 270.0331 15.08851754 72902,6917.844,95.437,540.75,538.669,0.0
52693.0,STARLINK-3946,PAYLOAD,2023-09-08 18:46:50,15.08829387,0.0001981,53.2178,282.3205,74.9313,285.1898,3.0742e-05,2.01e-06,0.0,0 STARLINK-3946,1 52693U 22053AP  23251.78252653  .00000201  00000-0  30742-4 0  9991,2 52693  53.2178 282.3205 0001981  74.9313 285.1898 15.08829387 73339,6917.913,95.438,541.148,538.407,0.0
52693.0,STARLINK-3946,PAYLOAD,2023-09-09 02:43:45,15.08831242,0.0001455,53.2178,280.8339,79.3326,280.783,4.1744e-05,3.76e-06,0.0,0 STARLINK-3946,1 52693U 22053AP  23252.11372507  .00000376  00000-0  41744-4 0  9997,2 52693  53.2178 280.8339 0001455  79.3326 280.7830 15.08831242 72989,6917.907,95.438,540.779,538.766,0.0
52693.0,STARLINK-3946,PAYLOAD,2023-09-09 09:05:18,15.0883808,0.000156,53.217,279.6455,77.9513,282.1654,8.0142e-05,9.88e-06,0.0,0 STARLINK-3946,1 52693U 22053AP  23252.37868100  .00000988  00000-0  80142-4 0  9998,2 52693  53.2170 279.6455 0001560  77.9513 282.1654 15.08838080 73028,6917.886,95.438,540.83,538.672,0.0
52693.0,STARLINK-3946,PAYLOAD,2023-09-09 10:40:41,15.08838978,0.0001548,53.2169,279.348,78.203,281.9136,8.957e-05,1.138e-05,0.0,0 STARLINK-3946,1 52693U 22053AP  23252.44492086  .00001138  00000-0  89570-4 0  9994,2 52693  53.2169 279.3480 0001548  78.2030 281.9136 15.08838978 73438,6917.884,95.438,540.819,538.678,0.0
52693.0,STARLINK-3946,PAYLOAD,2023-09-10 08:56:04,15.08843969,0.0001463,53.2158,275.1852,88.0917,272.0243,0.00011619,1.562e-05,0.0,0 STARLINK-3946,1 52693U 22053AP  23253.37227784  .00001562  00000-0  11619-3 0  9997,2 52693  53.2158 275.1852 0001463  88.0917 272.0243 15.08843969 73573,6917.868,95.437,540.745,538.721,0.0
52693.0,STARLINK-3946,PAYLOAD,2023-09-10 18:28:23,15.08846385,0.0001437,53.2158,273.4011,89.9076,270.2081,0.00013447,1.853e-05,0.0,0 STARLINK-3946,1 52693U 22053AP  23253.76971638  .00001853  00000-0  13447-3 0  9998,2 52693  53.2158 273.4011 0001437  89.9076 270.2081 15.08846385 73236,6917.861,95.437,540.72,538.732,0.0
52693.0,STARLINK-3946,PAYLOAD,2023-09-11 08:46:52,15.08838456,0.0001511,53.2158,270.7251,84.9417,275.1747,7.7138e-05,9.4e-06,0.0,0 STARLINK-3946,1 52693U 22053AP  23254.36588335  .00000940  00000-0  77138-4 0  9997,2 52693  53.2158 270.7251 0001511  84.9417 275.1747 15.08838456 73322,6917.885,95.438,540.795,538.705,0.0
52693.0,STARLINK-3946,PAYLOAD,2023-09-12 08:37:39,15.08847806,0.0001523,53.2168,266.2646,90.5527,269.5639,0.000112,1.495e-05,0.0,0 STARLINK-3946,1 52693U 22053AP  23255.35947957  .00001495  00000-0  11200-3 0  9999,2 52693  53.2168 266.2646 0001523  90.5527 269.5639 15.08847806 73875,6917.857,95.437,540.775,538.668,0.0
52693.0,STARLINK-3946,PAYLOAD,2023-09-12 18:09:58,15.08842641,0.0001529,53.2166,264.4796,91.0787,269.038,9.7458e-05,1.264e-05,0.0,0 STARLINK-3946,1 52693U 22053AP  23255.75692311  .00001264  00000-0  97458-4 0  9998,2 52693  53.2166 264.4796 0001529  91.0787 269.0380 15.08842641 73936,6917.872,95.437,540.795,538.68,0.0
52693.0,STARLINK-3946,PAYLOAD,2023-09-13 06:53:03,15.08845791,0.0001513,53.2154,262.1002,91.5229,268.5936,0.00018142,2.601e-05,0.0,0 STARLINK-3946,1 52693U 22053AP  23256.28684131  .00002601  00000-0  18142-3 0  9996,2 52693  53.2154 262.1002 0001513  91.5229 268.5936 15.08845791 74017,6917.863,95.437,540.774,538.681,0.0
52693.0,STARLINK-3946,PAYLOAD,2023-09-13 18:00:45,15.08841816,0.0001507,53.2149,260.0183,91.5645,268.552,9.7724e-05,1.268e-05,0.0,0 STARLINK-3946,1 52693U 22053AP  23256.75052280  .00001268  00000-0  97724-4 0  9994,2 52693  53.2149 260.0183 0001507  91.5645 268.5520 15.08841816 74083,6917.875,95.437,540.782,538.697,0.0
52693.0,STARLINK-3946,PAYLOAD,2023-09-14 00:22:18,15.08838024,0.0001789,53.2155,258.8294,96.9922,263.1274,2.9334e-05,1.79e-06,0.0,0 STARLINK-3946,1 52693U 22053AP  23257.01548641  .00000179  00000-0  29334-4 0  9997,2 52693  53.2155 258.8294 0001789  96.9922 263.1274 15.08838024 73721,6917.886,95.438,540.989,538.514,0.0
52693.0,STARLINK-3946,PAYLOAD,2023-09-14 06:43:50,15.08834901,0.000159,53.2169,257.6402,95.3548,264.7625,-3.4678e-05,-8.4e-06,0.0,0 STARLINK-3946,1 52693U 22053AP  23257.28045095 -.00000840  00000-0 -34678-4 0  9995,2 52693  53.2169 257.6402 0001590  95.3548 264.7625 15.08834901 74167,6917.896,95.438,540.861,538.661,0.0
52693.0,STARLINK-3946,PAYLOAD,2023-09-15 03:23:51,15.08841902,0.0001635,53.2174,253.7738,102.9843,257.1332,6.3873e-05,7.29e-06,0.0,0 STARLINK-3946,1 52693U 22053AP  23258.14156523  .00000729  00000-0  63873-4 0  9993,2 52693  53.2174 253.7738 0001635 102.9843 257.1332 15.08841902 73894,6917.875,95.437,540.871,538.609,0.0
52693.0,STARLINK-3946,PAYLOAD,2023-09-15 06:34:37,15.08843082,0.0001361,53.2169,253.1802,94.8735,265.2412,0.00010602,1.4e-05,0.0,0 STARLINK-3946,1 52693U 22053AP  23258.27404364  .00001400  00000-0  10602-3 0  9994,2 52693  53.2169 253.1802 0001361  94.8735 265.2412 15.08843082 74317,6917.871,95.437,540.677,538.794,0.0
52693.0,STARLINK-3946,PAYLOAD,2023-09-16 08:00:48,15.08837097,0.0001524,53.2171,248.4237,99.3891,260.7273,0.00012425,1.69e-05,0.0,0 STARLINK-3946,1 52693U 22053AP  23259.33389019  .00001690  00000-0  12425-3 0  9997,2 52693  53.2171 248.4237 0001524  99.3891 260.7273 15.08837097 74070,6917.889,95.438,540.809,538.7,0.0
52693.0,STARLINK-3946,PAYLOAD,2023-09-17 07:51:34,15.08844961,0.0001516,53.2169,243.9633,99.6373,260.4791,9.1703e-05,1.172e-05,0.0,0 STARLINK-3946,1 52693U 22053AP  23260.32748785  .00001172  00000-0  91703-4 0  9999,2 52693  53.2169 243.9633 0001516  99.6373 260.4791 15.08844961 74627,6917.865,95.437,540.779,538.681,0.0
52693.0,STARLINK-3946,PAYLOAD,2023-09-18 02:56:12,15.08839741,0.000151,53.2168,240.3943,95.7579,264.3586,8.2963e-05,1.033e-05,0.0,0 STARLINK-3946,1 52693U 22053AP  23261.12237221  .00001033  00000-0  82963-4 0  9990,2 52693  53.2168 240.3943 0001510  95.7579 264.3586 15.08839741 74344,6917.881,95.438,540.791,538.702,0.0
52693.0,STARLINK-3946,PAYLOAD,2023-09-18 10:53:08,15.08837766,0.0001637,53.2167,238.9063,103.5444,256.5731,0.00026991,4.01e-05,0.0,0 STARLINK-3946,1 52693U 22053AP  23261.45356941  .00004010  00000-0  26991-3 0  9993,2 52693  53.2167 238.9063 0001637 103.5444 256.5731 15.08837766 74797,6917.887,95.438,540.885,538.62,0.0
52693.0,STARLINK-3946,PAYLOAD,2023-09-19 07:33:08,15.08849939,0.0001623,53.2176,235.0395,86.5374,273.5804,0.0001369,1.892e-05,0.0,0 STARLINK-3946,1 52693U 22053AP  23262.31468466  .00001892  00000-0  13690-3 0  9992,2 52693  53.2176 235.0395 0001623  86.5374 273.5804 15.08849939 74526,6917.85,95.437,540.838,538.592,0.0
52693.0,STARLINK-3946,PAYLOAD,2023-09-19 15:30:04,15.08843726,0.000159,53.2169,233.5541,87.154,272.9634,5.0953e-05,5.23e-06,0.0,0 STARLINK-3946,1 52693U 22053AP  23262.64588820  .00000523  00000-0  50953-4 0  9999,2 52693  53.2169 233.5541 0001590  87.1540 272.9634 15.08843726 74576,6917.869,95.437,540.834,538.634,0.0
